H1 CPF 01  gfz 2021 08 27 00  7391 tandemx   
H2 1003001  6202 36605    2021 08 27 00 59 42 2021 09 01 00 00 42   120 1 1  0 0 0
H9
10 0 59456   9342.000000  0   -2244758.663  -1488357.059   6329416.086
10 0 59456   9462.000000  0   -1739278.466   -771730.229   6609603.704
10 0 59456   9582.000000  0   -1190868.464    -50858.139   6773628.698
10 0 59456   9702.000000  0    -609143.116    661012.087   6818628.640
10 0 59456   9822.000000  0      -4522.912   1350968.081   6743819.225
10 0 59456   9942.000000  0     611952.056   2006666.256   6550507.476
10 0 59456  10062.000000  0    1228823.422   2616552.723   6242069.856
10 0 59456  10182.000000  0    1834426.599   3170066.806   5823896.683
10 0 59456  10302.000000  0    2417110.760   3657826.377   5303304.220
10 0 59456  10422.000000  0    2965464.499   4071791.694   4689413.173
10 0 59456  10542.000000  0    3468541.916   4405402.605   3992992.996
10 0 59456  10662.000000  0    3916082.676   4653687.169   3226277.936
10 0 59456  10782.000000  0    4298727.313   4813342.464   2402754.828
10 0 59456  10902.000000  0    4608216.045   4882779.098   1536920.820
10 0 59456  11022.000000  0    4837566.913   4862132.292    644025.219
10 0 59456  11142.000000  0    4981233.951   4753238.668   -260207.088
10 0 59456  11262.000000  0    5035233.558   4559575.846  -1159862.681
10 0 59456  11382.000000  0    4997239.803   4286169.047  -2039127.403
10 0 59456  11502.000000  0    4866647.419   3939467.883  -2882571.239
10 0 59456  11622.000000  0    4644599.531   3527195.814  -3675424.162
10 0 59456  11742.000000  0    4333979.480   3058177.146  -4403836.711
10 0 59456  11862.000000  0    3939368.404   2542145.489  -5055120.002
10 0 59456  11982.000000  0    3466970.952   1989538.549  -5617960.968
10 0 59456  12102.000000  0    2924510.348   1411285.149  -6082610.377
10 0 59456  12222.000000  0    2321095.258    818588.879  -6441040.754
10 0 59456  12342.000000  0    1667062.926    222712.951  -6687072.704
10 0 59456  12462.000000  0     973802.566   -365229.665  -6816471.236
10 0 59456  12582.000000  0     253558.208   -934479.538  -6827011.981
10 0 59456  12702.000000  0    -480783.746  -1474822.616  -6718513.224
10 0 59456  12822.000000  0   -1215918.665  -1976767.977  -6492838.857
10 0 59456  12942.000000  0   -1938359.255  -2431711.397  -6153870.739
10 0 59456  13062.000000  0   -2634677.432  -2832081.166  -5707448.450
10 0 59456  13182.000000  0   -3291749.532  -3171464.217  -5161279.654
10 0 59456  13302.000000  0   -3897003.633  -3444712.275  -4524819.373
10 0 59456  13422.000000  0   -4438662.426  -3648023.742  -3809116.636
10 0 59456  13542.000000  0   -4905976.809  -3778999.905  -3026632.288
10 0 59456  13662.000000  0   -5289445.946  -3836674.401  -2191028.637
10 0 59456  13782.000000  0   -5581017.659  -3821514.068  -1316933.466
10 0 59456  13902.000000  0   -5774263.886  -3735390.644   -419683.204
10 0 59456  14022.000000  0   -5864526.744  -3581523.787    484950.358
10 0 59456  14142.000000  0   -5849031.257  -3364396.670   1381044.684
10 0 59456  14262.000000  0   -5726959.476  -3089644.792   2252817.012
10 0 59456  14382.000000  0   -5499483.961  -2763920.711   3084911.177
10 0 59456  14502.000000  0   -5169761.823  -2394740.425   3862675.441
10 0 59456  14622.000000  0   -4742888.049  -1990313.071   4572426.980
10 0 59456  14742.000000  0   -4225809.471  -1559359.038   5201694.113
10 0 59456  14862.000000  0   -3627204.495  -1110923.105   5739433.498
10 0 59456  14982.000000  0   -2957330.763   -654185.200   6176221.672
10 0 59456  15102.000000  0   -2227841.771   -198271.873   6504416.293
10 0 59456  15222.000000  0   -1451577.391    247925.739   6718282.749
10 0 59456  15342.000000  0    -642334.886    675923.215   6814087.773
10 0 59456  15462.000000  0     185376.896   1077802.945   6790160.498
10 0 59456  15582.000000  0    1016596.974   1446360.010   6646919.743
10 0 59456  15702.000000  0    1836181.936   1775231.701   6386867.080
10 0 59456  15822.000000  0    2629080.928   2059007.420   6014545.461
10 0 59456  15942.000000  0    3380612.530   2293318.373   5536465.596
10 0 59456  16062.000000  0    4076739.842   2474905.666   4960997.918
10 0 59456  16182.000000  0    4704336.286   2601665.756   4298231.798
10 0 59456  16302.000000  0    5251439.865   2672672.754   3559805.079
10 0 59456  16422.000000  0    5707491.941   2688175.347   2758700.661
10 0 59456  16542.000000  0    6063546.907   2649567.936   1909016.902
10 0 59456  16662.000000  0    6312456.197   2559339.219   1025717.127
10 0 59456  16782.000000  0    6449017.795   2420996.524    124359.058
10 0 59456  16902.000000  0    6470086.128   2238968.537   -779188.510
10 0 59456  17022.000000  0    6374638.806   2018488.421  -1669033.853
10 0 59456  17142.000000  0    6163803.781   1765462.373  -2529547.884
10 0 59456  17262.000000  0    5840843.373   1486325.171  -3345646.329
10 0 59456  17382.000000  0    5411094.402   1187886.189  -4103057.747
10 0 59456  17502.000000  0    4881867.596    877171.044  -4788573.157
10 0 59456  17622.000000  0    4262310.278    561263.384  -5390271.213
10 0 59456  17742.000000  0    3563237.850    247149.975  -5897717.316
10 0 59456  17862.000000  0    2796936.654    -58427.401  -6302134.863
10 0 59456  17982.000000  0    1976942.086   -349110.794  -6596545.617
10 0 59456  18102.000000  0    1117798.951   -619053.176  -6775878.596
10 0 59456  18222.000000  0     234805.592   -863031.773  -6837049.507
10 0 59456  18342.000000  0    -656254.509  -1076545.160  -6779006.734
10 0 59456  18462.000000  0   -1539387.448  -1255893.689  -6602747.329
10 0 59456  18582.000000  0   -2398669.696  -1398242.253  -6311302.207
10 0 59456  18702.000000  0   -3218528.712  -1501664.201  -5909688.415
10 0 59456  18822.000000  0   -3984019.827  -1565166.434  -5404832.901
10 0 59456  18942.000000  0   -4681099.464  -1588695.340  -4805465.190
10 0 59456  19062.000000  0   -5296886.360  -1573122.529  -4121977.417
10 0 59456  19182.000000  0   -5819906.626  -1520210.883  -3366254.970
10 0 59456  19302.000000  0   -6240318.162  -1432561.347  -2551477.686
10 0 59456  19422.000000  0   -6550107.567  -1313540.743  -1691894.136
10 0 59456  19542.000000  0   -6743254.848  -1167192.377   -802573.176
10 0 59456  19662.000000  0   -6815861.557   -998131.128    100863.711
10 0 59456  19782.000000  0   -6766237.102   -811424.500   1002523.428
10 0 59456  19902.000000  0   -6594941.101   -612464.421   1886529.082
10 0 59456  20022.000000  0   -6304780.241   -406832.308   2737308.753
10 0 59456  20142.000000  0   -5900759.831   -200160.543   3539878.475
10 0 59456  20262.000000  0   -5389990.503      2006.008   4280113.235
10 0 59456  20382.000000  0   -4781553.111    194343.913   4944999.160
10 0 59456  20502.000000  0   -4086326.979    371878.199   5522861.914
10 0 59456  20622.000000  0   -3316786.355    530099.652   6003569.320
10 0 59456  20742.000000  0   -2486767.658    665068.808   6378704.929
10 0 59456  20862.000000  0   -1611214.191    773504.995   6641709.928
10 0 59456  20982.000000  0    -705902.089    852859.758   6787991.844
10 0 59456  21102.000000  0     212845.355    901372.216   6814998.572
10 0 59456  21222.000000  0    1128451.232    918105.774   6722259.667
10 0 59456  21342.000000  0    2024382.886    902966.236   6511394.179
10 0 59456  21462.000000  0    2884449.441    856700.399   6186084.398
10 0 59456  21582.000000  0    3693095.352    780875.173   5752016.340
10 0 59456  21702.000000  0    4435684.679    677837.870   5216785.247
10 0 59456  21822.000000  0    5098770.244    550657.711   4589769.177
10 0 59456  21942.000000  0    5670345.405    403049.561   3881971.208
10 0 59456  22062.000000  0    6140071.847    239282.782   3105829.261
10 0 59456  22182.000000  0    6499476.592     64076.377   2274997.066
10 0 59456  22302.000000  0    6742113.613   -117519.055   1404102.174
10 0 59456  22422.000000  0    6863688.193   -300247.536    508483.508
10 0 59456  22542.000000  0    6862138.095   -478779.104   -396086.331
10 0 59456  22662.000000  0    6737669.667   -647844.327  -1293688.491
10 0 59456  22782.000000  0    6492747.480   -802367.580  -2168546.655
10 0 59456  22902.000000  0    6132038.595   -937595.560  -3005311.722
10 0 59456  23022.000000  0    5662313.579  -1049218.129  -3789335.463
10 0 59456  23142.000000  0    5092307.327  -1133478.084  -4506928.090
10 0 59456  23262.000000  0    4432544.191  -1187267.074  -5145594.213
10 0 59456  23382.000000  0    3695132.904  -1208206.617  -5694244.297
10 0 59456  23502.000000  0    2893534.961  -1194712.786  -6143378.201
10 0 59456  23622.000000  0    2042313.157  -1146042.183  -6485238.342
10 0 59456  23742.000000  0    1156865.301  -1062318.599  -6713932.548
10 0 59456  23862.000000  0     253147.518   -944542.032  -6825525.379
10 0 59456  23982.000000  0    -652608.771   -794578.297  -6818098.422
10 0 59456  24102.000000  0   -1544181.382   -615130.044  -6691779.451
10 0 59456  24222.000000  0   -2405641.603   -409689.070  -6448740.508
10 0 59456  24342.000000  0   -3221632.110   -182471.058  -6093163.299
10 0 59456  24462.000000  0   -3977635.276     61666.473  -5631175.823
10 0 59456  24582.000000  0   -4660231.671    317322.285  -5070757.696
10 0 59456  24702.000000  0   -5257340.813    578663.335  -4421613.638
10 0 59456  24822.000000  0   -5758442.802    839549.757  -3695017.682
10 0 59456  24942.000000  0   -6154774.460   1093670.871  -2903626.322
10 0 59456  25062.000000  0   -6439494.921   1334688.500  -2061263.960
10 0 59456  25182.000000  0   -6607816.463   1556384.195  -1182683.860
10 0 59456  25302.000000  0   -6657097.647   1752808.154   -283307.818
10 0 59456  25422.000000  0   -6586892.986   1918423.860    621051.122
10 0 59456  25542.000000  0   -6398958.268   2048246.168   1514473.859
10 0 59456  25662.000000  0   -6097212.473   2137969.677   2381224.173
10 0 59456  25782.000000  0   -5687655.472   2184083.212   3206035.022
99
